{
  "type": "FeatureCollection",
  "features": [
    {
      "type": "Feature",
      "properties": {
        "norad_id": 43647,
        "name": "BEIDOU-3 M16 (C35)",
        "group": "gnss",
        "lat": -41.95396763843813,
        "lon": 166.38402652471163,
        "alt_km": 21549.823071821396,
        "timestamp": "2025-12-24T20:42:21.270389+00:00",
        "meta_object_name": "BEIDOU-3 M16 (C35)",
        "meta_object_id": "2018-078A",
        "meta_epoch": "2025-12-23T23:23:29.633856",
        "meta_mean_motion": 1.86232286,
        "meta_eccentricity": 0.00074504,
        "meta_inclination": 54.2515,
        "meta_ra_of_asc_node": 306.1287,
        "meta_arg_of_pericenter": 20.4306,
        "meta_mean_anomaly": 339.606,
        "meta_ephemeris_type": 0,
        "meta_classification_type": "U",
        "meta_norad_cat_id": 43647,
        "meta_element_set_no": 999,
        "meta_rev_at_epoch": 4889,
        "meta_bstar": 0,
        "meta_mean_motion_dot": -5.2e-07,
        "meta_mean_motion_ddot": 0,
        "tle_line1": "1 43647U 18078A   25357.97464854 -.00000052  00000+0  00000+0 0  9993",
        "tle_line2": "2 43647  54.2515 306.1287 0007450  20.4306 339.6060  1.86232286 48890"
      },
      "geometry": {
        "type": "Point",
        "coordinates": [
          166.38402652471163,
          -41.95396763843813
        ]
      }
    },
    {
      "type": "Feature",
      "properties": {
        "norad_id": 43648,
        "name": "BEIDOU-3 M15 (C34)",
        "group": "gnss",
        "lat": 24.795437519279687,
        "lon": 106.66313087052515,
        "alt_km": 21532.027487587253,
        "timestamp": "2025-12-24T20:42:21.270406+00:00",
        "meta_object_name": "BEIDOU-3 M15 (C34)",
        "meta_object_id": "2018-078B",
        "meta_epoch": "2025-12-24T02:29:34.317888",
        "meta_mean_motion": 1.86232361,
        "meta_eccentricity": 0.0004049,
        "meta_inclination": 54.2473,
        "meta_ra_of_asc_node": 306.125,
        "meta_arg_of_pericenter": 19.767,
        "meta_mean_anomaly": 340.256,
        "meta_ephemeris_type": 0,
        "meta_classification_type": "U",
        "meta_norad_cat_id": 43648,
        "meta_element_set_no": 999,
        "meta_rev_at_epoch": 4891,
        "meta_bstar": 0,
        "meta_mean_motion_dot": -5.2e-07,
        "meta_mean_motion_ddot": 0,
        "tle_line1": "1 43648U 18078B   25358.10386942 -.00000052  00000+0  00000+0 0  9991",
        "tle_line2": "2 43648  54.2473 306.1250 0004049  19.7670 340.2560  1.86232361 48910"
      },
      "geometry": {
        "type": "Point",
        "coordinates": [
          106.66313087052515,
          24.795437519279687
        ]
      }
    },
    {
      "type": "Feature",
      "properties": {
        "norad_id": 43683,
        "name": "BEIDOU-3 G1 (C59)",
        "group": "gnss",
        "lat": 2.6128464771354984,
        "lon": -175.82520054096986,
        "alt_km": 35782.333442799805,
        "timestamp": "2025-12-24T20:42:21.270424+00:00",
        "meta_object_name": "BEIDOU-3 G1 (C59)",
        "meta_object_id": "2018-085A",
        "meta_epoch": "2025-12-24T06:55:03.171360",
        "meta_mean_motion": 1.00266915,
        "meta_eccentricity": 0.00014588,
        "meta_inclination": 2.635,
        "meta_ra_of_asc_node": 102.6249,
        "meta_arg_of_pericenter": 43.7654,
        "meta_mean_anomaly": 190.4043,
        "meta_ephemeris_type": 0,
        "meta_classification_type": "U",
        "meta_norad_cat_id": 43683,
        "meta_element_set_no": 999,
        "meta_rev_at_epoch": 2630,
        "meta_bstar": 0,
        "meta_mean_motion_dot": -2.59e-06,
        "meta_mean_motion_ddot": 0,
        "tle_line1": "1 43683U 18085A   25358.28823115 -.00000259  00000+0  00000+0 0  9994",
        "tle_line2": "2 43683   2.6350 102.6249 0001458  43.7654 190.4043  1.00266915 26305"
      },
      "geometry": {
        "type": "Point",
        "coordinates": [
          -175.82520054096986,
          2.6128464771354984
        ]
      }
    },
    {
      "type": "Feature",
      "properties": {
        "norad_id": 43687,
        "name": "COSMOS 2529 (757)",
        "group": "gnss",
        "lat": -7.704861208942777,
        "lon": 22.221785705616487,
        "alt_km": 19123.98948260697,
        "timestamp": "2025-12-24T20:42:21.270442+00:00",
        "meta_object_name": "COSMOS 2529 (757)",
        "meta_object_id": "2018-086A",
        "meta_epoch": "2025-12-23T05:01:04.327104",
        "meta_mean_motion": 2.13102131,
        "meta_eccentricity": 0.0006897,
        "meta_inclination": 64.2927,
        "meta_ra_of_asc_node": 198.5346,
        "meta_arg_of_pericenter": 253.659,
        "meta_mean_anomaly": 106.3281,
        "meta_ephemeris_type": 0,
        "meta_classification_type": "U",
        "meta_norad_cat_id": 43687,
        "meta_element_set_no": 999,
        "meta_rev_at_epoch": 5553,
        "meta_bstar": 0,
        "meta_mean_motion_dot": 9.5e-07,
        "meta_mean_motion_ddot": 0,
        "tle_line1": "1 43687U 18086A   25357.20907786  .00000095  00000+0  00000+0 0  9994",
        "tle_line2": "2 43687  64.2927 198.5346 0006897 253.6590 106.3281  2.13102131 55539"
      },
      "geometry": {
        "type": "Point",
        "coordinates": [
          22.221785705616487,
          -7.704861208942777
        ]
      }
    },
    {
      "type": "Feature",
      "properties": {
        "norad_id": 43706,
        "name": "BEIDOU-3 M17 (C36)",
        "group": "gnss",
        "lat": 33.15161774569615,
        "lon": -143.61743278813907,
        "alt_km": 21525.704908098538,
        "timestamp": "2025-12-24T20:42:21.270483+00:00",
        "meta_object_name": "BEIDOU-3 M17 (C36)",
        "meta_object_id": "2018-093A",
        "meta_epoch": "2025-12-22T11:03:17.644896",
        "meta_mean_motion": 1.86228432,
        "meta_eccentricity": 0.00060427,
        "meta_inclination": 54.173,
        "meta_ra_of_asc_node": 188.2918,
        "meta_arg_of_pericenter": 307.405,
        "meta_mean_anomaly": 284.4943,
        "meta_ephemeris_type": 0,
        "meta_classification_type": "U",
        "meta_norad_cat_id": 43706,
        "meta_element_set_no": 999,
        "meta_rev_at_epoch": 4824,
        "meta_bstar": 0,
        "meta_mean_motion_dot": 9.4e-07,
        "meta_mean_motion_ddot": 0,
        "tle_line1": "1 43706U 18093A   25356.46062089  .00000094  00000+0  00000+0 0  9998",
        "tle_line2": "2 43706  54.1730 188.2918 0006042 307.4050 284.4943  1.86228432 48248"
      },
      "geometry": {
        "type": "Point",
        "coordinates": [
          -143.61743278813907,
          33.15161774569615
        ]
      }
    },
    {
      "type": "Feature",
      "properties": {
        "norad_id": 43707,
        "name": "BEIDOU-3 M18 (C37)",
        "group": "gnss",
        "lat": 34.788138375617315,
        "lon": -21.932728610572088,
        "alt_km": 21537.549904638134,
        "timestamp": "2025-12-24T20:42:21.270502+00:00",
        "meta_object_name": "BEIDOU-3 M18 (C37)",
        "meta_object_id": "2018-093B",
        "meta_epoch": "2025-12-23T01:12:21.238848",
        "meta_mean_motion": 1.86226616,
        "meta_eccentricity": 0.0006147,
        "meta_inclination": 54.1741,
        "meta_ra_of_asc_node": 188.2636,
        "meta_arg_of_pericenter": 354.1254,
        "meta_mean_anomaly": 5.9078,
        "meta_ephemeris_type": 0,
        "meta_classification_type": "U",
        "meta_norad_cat_id": 43707,
        "meta_element_set_no": 999,
        "meta_rev_at_epoch": 4825,
        "meta_bstar": 0,
        "meta_mean_motion_dot": 9.6e-07,
        "meta_mean_motion_ddot": 0,
        "tle_line1": "1 43707U 18093B   25357.05024582  .00000096  00000+0  00000+0 0  9993",
        "tle_line2": "2 43707  54.1741 188.2636 0006147 354.1254   5.9078  1.86226616 48257"
      },
      "geometry": {
        "type": "Point",
        "coordinates": [
          -21.932728610572088,
          34.788138375617315
        ]
      }
    },
    {
      "type": "Feature",
      "properties": {
        "norad_id": 43873,
        "name": "GPS BIII-1  (PRN 04)",
        "group": "gnss",
        "lat": -53.44631623163114,
        "lon": -13.445480879385064,
        "alt_km": 20140.496268604944,
        "timestamp": "2025-12-24T20:42:21.270519+00:00",
        "meta_object_name": "GPS BIII-1  (PRN 04)",
        "meta_object_id": "2018-109A",
        "meta_epoch": "2025-12-24T00:11:38.701248",
        "meta_mean_motion": 2.00553951,
        "meta_eccentricity": 0.00376154,
        "meta_inclination": 55.5728,
        "meta_ra_of_asc_node": 99.1026,
        "meta_arg_of_pericenter": 195.5466,
        "meta_mean_anomaly": 163.7899,
        "meta_ephemeris_type": 0,
        "meta_classification_type": "U",
        "meta_norad_cat_id": 43873,
        "meta_element_set_no": 999,
        "meta_rev_at_epoch": 5155,
        "meta_bstar": 0,
        "meta_mean_motion_dot": 1.5e-07,
        "meta_mean_motion_ddot": 0,
        "tle_line1": "1 43873U 18109A   25358.00808682  .00000015  00000+0  00000+0 0  9993",
        "tle_line2": "2 43873  55.5728  99.1026 0037615 195.5466 163.7899  2.00553951 51553"
      },
      "geometry": {
        "type": "Point",
        "coordinates": [
          -13.445480879385064,
          -53.44631623163114
        ]
      }
    }
  ]
}